{
  "type": "FeatureCollection",
  "features": [
    {
      "type": "Feature",
      "properties": {
        "norad_id": 40691,
        "name": "FENGYUN 1C DEB",
        "group": "fengyun-1c-debris",
        "lat": -50.28322926132235,
        "lon": 178.19687276503947,
        "alt_km": 962.3550603186859,
        "timestamp": "2025-12-02T17:49:12.318064+00:00",
        "meta_object_name": "FENGYUN 1C DEB",
        "meta_object_id": "1999-025EWX",
        "meta_epoch": "2025-11-25T20:34:47.503200",
        "meta_mean_motion": 13.89940048,
        "meta_eccentricity": 0.01287608,
        "meta_inclination": 99.0569,
        "meta_ra_of_asc_node": 2.5642,
        "meta_arg_of_pericenter": 356.9317,
        "meta_mean_anomaly": 3.1039,
        "meta_ephemeris_type": 0,
        "meta_classification_type": "U",
        "meta_norad_cat_id": 40691,
        "meta_element_set_no": 999,
        "meta_rev_at_epoch": 55201,
        "meta_bstar": 0.00016867445,
        "meta_mean_motion_dot": 1.79e-06,
        "meta_mean_motion_ddot": 0,
        "tle_line1": "1 40691U 99025EWX 25329.85749425  .00000179  00000+0  16867-3 0  9997",
        "tle_line2": "2 40691  99.0569   2.5642 0128760 356.9317   3.1039 13.89940048552012"
      },
      "geometry": {
        "type": "Point",
        "coordinates": [
          178.19687276503947,
          -50.28322926132235
        ]
      }
    },
    {
      "type": "Feature",
      "properties": {
        "norad_id": 40695,
        "name": "FENGYUN 1C DEB",
        "group": "fengyun-1c-debris",
        "lat": -78.05491706299821,
        "lon": -137.993792247663,
        "alt_km": 759.2944369727211,
        "timestamp": "2025-12-02T17:49:12.318075+00:00",
        "meta_object_name": "FENGYUN 1C DEB",
        "meta_object_id": "1999-025EXB",
        "meta_epoch": "2025-11-30T01:42:31.870080",
        "meta_mean_motion": 14.50916136,
        "meta_eccentricity": 0.02815501,
        "meta_inclination": 99.4248,
        "meta_ra_of_asc_node": 90.7471,
        "meta_arg_of_pericenter": 10.5794,
        "meta_mean_anomaly": 350.1155,
        "meta_ephemeris_type": 0,
        "meta_classification_type": "U",
        "meta_norad_cat_id": 40695,
        "meta_element_set_no": 999,
        "meta_rev_at_epoch": 31682,
        "meta_bstar": 0.00020572034,
        "meta_mean_motion_dot": 1.283e-05,
        "meta_mean_motion_ddot": 0,
        "tle_line1": "1 40695U 99025EXB 25334.07120220  .00001283  00000+0  20572-3 0  9992",
        "tle_line2": "2 40695  99.4248  90.7471 0281550  10.5794 350.1155 14.50916136316823"
      },
      "geometry": {
        "type": "Point",
        "coordinates": [
          -137.993792247663,
          -78.05491706299821
        ]
      }
    },
    {
      "type": "Feature",
      "properties": {
        "norad_id": 40696,
        "name": "FENGYUN 1C DEB",
        "group": "fengyun-1c-debris",
        "lat": -62.851318480037065,
        "lon": -18.329861307663297,
        "alt_km": 910.9039346077898,
        "timestamp": "2025-12-02T17:49:12.318084+00:00",
        "meta_object_name": "FENGYUN 1C DEB",
        "meta_object_id": "1999-025EXC",
        "meta_epoch": "2025-11-26T05:40:29.681760",
        "meta_mean_motion": 13.96727195,
        "meta_eccentricity": 0.00806572,
        "meta_inclination": 98.9548,
        "meta_ra_of_asc_node": 317.4298,
        "meta_arg_of_pericenter": 42.7994,
        "meta_mean_anomaly": 317.9411,
        "meta_ephemeris_type": 0,
        "meta_classification_type": "U",
        "meta_norad_cat_id": 40696,
        "meta_element_set_no": 999,
        "meta_rev_at_epoch": 55449,
        "meta_bstar": 0.0001965233,
        "meta_mean_motion_dot": 2.38e-06,
        "meta_mean_motion_ddot": 0,
        "tle_line1": "1 40696U 99025EXC 25330.23645465  .00000238  00000+0  19652-3 0  9996",
        "tle_line2": "2 40696  98.9548 317.4298 0080657  42.7994 317.9411 13.96727195554498"
      },
      "geometry": {
        "type": "Point",
        "coordinates": [
          -18.329861307663297,
          -62.851318480037065
        ]
      }
    },
    {
      "type": "Feature",
      "properties": {
        "norad_id": 41003,
        "name": "FENGYUN 1C DEB",
        "group": "fengyun-1c-debris",
        "lat": -2.0295840258640903,
        "lon": -104.85017558678713,
        "alt_km": 615.5911743287779,
        "timestamp": "2025-12-02T17:49:12.318094+00:00",
        "meta_object_name": "FENGYUN 1C DEB",
        "meta_object_id": "1999-025EXH",
        "meta_epoch": "2025-12-01T12:27:32.870016",
        "meta_mean_motion": 14.71693137,
        "meta_eccentricity": 0.00741455,
        "meta_inclination": 98.9656,
        "meta_ra_of_asc_node": 253.4824,
        "meta_arg_of_pericenter": 327.3327,
        "meta_mean_anomaly": 32.3302,
        "meta_ephemeris_type": 0,
        "meta_classification_type": "U",
        "meta_norad_cat_id": 41003,
        "meta_element_set_no": 999,
        "meta_rev_at_epoch": 52255,
        "meta_bstar": 0.0050772648,
        "meta_mean_motion_dot": 0.00033124,
        "meta_mean_motion_ddot": 0,
        "tle_line1": "1 41003U 99025EXH 25335.51913044  .00033124  00000+0  50773-2 0  9994",
        "tle_line2": "2 41003  98.9656 253.4824 0074145 327.3327  32.3302 14.71693137522553"
      },
      "geometry": {
        "type": "Point",
        "coordinates": [
          -104.85017558678713,
          -2.0295840258640903
        ]
      }
    },
    {
      "type": "Feature",
      "properties": {
        "norad_id": 41006,
        "name": "FENGYUN 1C DEB",
        "group": "fengyun-1c-debris",
        "lat": 57.29358039361766,
        "lon": 44.35988615301012,
        "alt_km": 933.2624907613608,
        "timestamp": "2025-12-02T17:49:12.318104+00:00",
        "meta_object_name": "FENGYUN 1C DEB",
        "meta_object_id": "1999-025EXL",
        "meta_epoch": "2025-11-29T11:15:19.453824",
        "meta_mean_motion": 13.85224065,
        "meta_eccentricity": 0.01884128,
        "meta_inclination": 102.3665,
        "meta_ra_of_asc_node": 200.0792,
        "meta_arg_of_pericenter": 39.7901,
        "meta_mean_anomaly": 321.6889,
        "meta_ephemeris_type": 0,
        "meta_classification_type": "U",
        "meta_norad_cat_id": 41006,
        "meta_element_set_no": 999,
        "meta_rev_at_epoch": 57305,
        "meta_bstar": 0.0026164017,
        "meta_mean_motion_dot": 3.344e-05,
        "meta_mean_motion_ddot": 0,
        "tle_line1": "1 41006U 99025EXL 25333.46897516  .00003344  00000+0  26164-2 0  9992",
        "tle_line2": "2 41006 102.3665 200.0792 0188412  39.7901 321.6889 13.85224065573052"
      },
      "geometry": {
        "type": "Point",
        "coordinates": [
          44.35988615301012,
          57.29358039361766
        ]
      }
    },
    {
      "type": "Feature",
      "properties": {
        "norad_id": 41011,
        "name": "FENGYUN 1C DEB",
        "group": "fengyun-1c-debris",
        "lat": -15.361370458871358,
        "lon": -161.55985698115438,
        "alt_km": 970.2971151097563,
        "timestamp": "2025-12-02T17:49:12.318114+00:00",
        "meta_object_name": "FENGYUN 1C DEB",
        "meta_object_id": "1999-025EXR",
        "meta_epoch": "2025-12-02T01:56:56.723712",
        "meta_mean_motion": 14.4279186,
        "meta_eccentricity": 0.03109814,
        "meta_inclination": 99.1713,
        "meta_ra_of_asc_node": 20.2717,
        "meta_arg_of_pericenter": 29.6469,
        "meta_mean_anomaly": 332.195,
        "meta_ephemeris_type": 0,
        "meta_classification_type": "U",
        "meta_norad_cat_id": 41011,
        "meta_element_set_no": 999,
        "meta_rev_at_epoch": 57003,
        "meta_bstar": 0.00060418424,
        "meta_mean_motion_dot": 3.56e-05,
        "meta_mean_motion_ddot": 0,
        "tle_line1": "1 41011U 99025EXR 25336.08121208  .00003560  00000+0  60418-3 0  9998",
        "tle_line2": "2 41011  99.1713  20.2717 0310981  29.6469 332.1950 14.42791860570036"
      },
      "geometry": {
        "type": "Point",
        "coordinates": [
          -161.55985698115438,
          -15.361370458871358
        ]
      }
    },
    {
      "type": "Feature",
      "properties": {
        "norad_id": 41018,
        "name": "FENGYUN 1C DEB",
        "group": "fengyun-1c-debris",
        "lat": 4.5024801351619725,
        "lon": 101.88169559430308,
        "alt_km": 871.138123053498,
        "timestamp": "2025-12-02T17:49:12.318124+00:00",
        "meta_object_name": "FENGYUN 1C DEB",
        "meta_object_id": "1999-025EXY",
        "meta_epoch": "2025-11-14T13:55:42.109536",
        "meta_mean_motion": 13.52269451,
        "meta_eccentricity": 0.03030631,
        "meta_inclination": 99.9325,
        "meta_ra_of_asc_node": 262.8906,
        "meta_arg_of_pericenter": 189.0805,
        "meta_mean_anomaly": 170.4772,
        "meta_ephemeris_type": 0,
        "meta_classification_type": "U",
        "meta_norad_cat_id": 41018,
        "meta_element_set_no": 999,
        "meta_rev_at_epoch": 87794,
        "meta_bstar": 0.0023936359,
        "meta_mean_motion_dot": 2.062e-05,
        "meta_mean_motion_ddot": 0,
        "tle_line1": "1 41018U 99025EXY 25318.58034849  .00002062  00000+0  23936-2 0  9993",
        "tle_line2": "2 41018  99.9325 262.8906 0303063 189.0805 170.4772 13.52269451877943"
      },
      "geometry": {
        "type": "Point",
        "coordinates": [
          101.88169559430308,
          4.5024801351619725
        ]
      }
    }
  ]
}